[
    {
        "Altitude(m)": 553957.6769894504,
        "Argument of Periapsis(deg)": 0.019868973332140504,
        "Eccentricity": 0.0,
        "Inclination(deg)": 53.0,
        "Latitude(deg)": 2.3486101988587884,
        "Longitude(deg)": 54.38096510321226,
        "Mean Anomaly(deg)": 3.00207860273276,
        "RAAN(deg)": 154.97043010558406,
        "Satellite Name": "Starlink Shell 1 702",
        "Satellite Number": 702,
        "Semi-Major Axis(m)": 6931778.249405717,
        "Time(s)": 570
    },
    {
        "Altitude(m)": 553906.8178536454,
        "Argument of Periapsis(deg)": 0.02021755181165174,
        "Eccentricity": 0.0,
        "Inclination(deg)": 53.0,
        "Latitude(deg)": 2.852295599481209,
        "Longitude(deg)": 54.71714129212946,
        "Mean Anomaly(deg)": 3.62890980628943,
        "RAAN(deg)": 154.96991133550657,
        "Satellite Name": "Starlink Shell 1 702",
        "Satellite Number": 702,
        "Semi-Major Axis(m)": 6931778.249405717,
        "Time(s)": 580
    },
    {
        "Altitude(m)": 553858.7800939456,
        "Argument of Periapsis(deg)": 0.020566130291162974,
        "Eccentricity": 0.0,
        "Inclination(deg)": 53.0,
        "Latitude(deg)": 3.3558605568218414,
        "Longitude(deg)": 55.05365221697531,
        "Mean Anomaly(deg)": 4.255741009846177,
        "RAAN(deg)": 154.9693925654291,
        "Satellite Name": "Starlink Shell 1 702",
        "Satellite Number": 702,
        "Semi-Major Axis(m)": 6931778.249405717,
        "Time(s)": 590
    },
    {
        "Altitude(m)": 553813.5633561052,
        "Argument of Periapsis(deg)": 0.020914708770674213,
        "Eccentricity": 0.0,
        "Inclination(deg)": 53.0,
        "Latitude(deg)": 3.8592819323544068,
        "Longitude(deg)": 55.390555915910774,
        "Mean Anomaly(deg)": 4.882572213402923,
        "RAAN(deg)": 154.96887379535164,
        "Satellite Name": "Starlink Shell 1 702",
        "Satellite Number": 702,
        "Semi-Major Axis(m)": 6931778.249405717,
        "Time(s)": 600
    },
    {
        "Altitude(m)": 553771.1659375519,
        "Argument of Periapsis(deg)": 0.021263287250185448,
        "Eccentricity": 0.0,
        "Inclination(deg)": 53.0,
        "Latitude(deg)": 4.362536505383818,
        "Longitude(deg)": 55.72791060127939,
        "Mean Anomaly(deg)": 5.509403416959619,
        "RAAN(deg)": 154.96835502527415,
        "Satellite Name": "Starlink Shell 1 702",
        "Satellite Number": 702,
        "Semi-Major Axis(m)": 6931778.249405717,
        "Time(s)": 610
    },
    {
        "Altitude(m)": 553731.5847910078,
        "Argument of Periapsis(deg)": 0.021611865729696686,
        "Eccentricity": 0.0,
        "Inclination(deg)": 53.0,
        "Latitude(deg)": 4.865600961064439,
        "Longitude(deg)": 56.06577518935201,
        "Mean Anomaly(deg)": 6.136234620516365,
        "RAAN(deg)": 154.9678362551967,
        "Satellite Name": "Starlink Shell 1 702",
        "Satellite Number": 702,
        "Semi-Major Axis(m)": 6931778.249405717,
        "Time(s)": 620
    },
    {
        "Altitude(m)": 553694.8155287859,
        "Argument of Periapsis(deg)": 0.02196044420920792,
        "Eccentricity": 0.0,
        "Inclination(deg)": 53.0,
        "Latitude(deg)": 5.368451878326682,
        "Longitude(deg)": 56.40420814916128,
        "Mean Anomaly(deg)": 6.76306582407301,
        "RAAN(deg)": 154.96731748511922,
        "Satellite Name": "Starlink Shell 1 702",
        "Satellite Number": 702,
        "Semi-Major Axis(m)": 6931778.249405717,
        "Time(s)": 630
    },
    {
        "Altitude(m)": 553660.8524277469,
        "Argument of Periapsis(deg)": 0.02230902268871916,
        "Eccentricity": 0.0,
        "Inclination(deg)": 53.0,
        "Latitude(deg)": 5.871065717707154,
        "Longitude(deg)": 56.743268872859566,
        "Mean Anomaly(deg)": 7.3898970276297815,
        "RAAN(deg)": 154.96679871504173,
        "Satellite Name": "Starlink Shell 1 702",
        "Satellite Number": 702,
        "Semi-Major Axis(m)": 6931778.249405717,
        "Time(s)": 640
    },
    {
        "Altitude(m)": 553629.6884349177,
        "Argument of Periapsis(deg)": 0.022657601168230398,
        "Eccentricity": 0.0,
        "Inclination(deg)": 53.0,
        "Latitude(deg)": 6.373418809062542,
        "Longitude(deg)": 57.08301652469204,
        "Mean Anomaly(deg)": 8.016728231186528,
        "RAAN(deg)": 154.96627994496427,
        "Satellite Name": "Starlink Shell 1 702",
        "Satellite Number": 702,
        "Semi-Major Axis(m)": 6931778.249405717,
        "Time(s)": 650
    },
    {
        "Altitude(m)": 553601.3151737904,
        "Argument of Periapsis(deg)": 0.023006179647741636,
        "Eccentricity": 0.0,
        "Inclination(deg)": 53.0,
        "Latitude(deg)": 6.875487339162852,
        "Longitude(deg)": 57.42351057101903,
        "Mean Anomaly(deg)": 8.6435594347432,
        "RAAN(deg)": 154.9657611748868,
        "Satellite Name": "Starlink Shell 1 702",
        "Satellite Number": 702,
        "Semi-Major Axis(m)": 6931778.249405717,
        "Time(s)": 660
    },
    {
        "Altitude(m)": 553575.7229512571,
        "Argument of Periapsis(deg)": 0.023354758127252868,
        "Eccentricity": 0.0,
        "Inclination(deg)": 53.0,
        "Latitude(deg)": 7.377247339149168,
        "Longitude(deg)": 57.764811310419915,
        "Mean Anomaly(deg)": 9.27039063829997,
        "RAAN(deg)": 154.96524240480932,
        "Satellite Name": "Starlink Shell 1 702",
        "Satellite Number": 702,
        "Semi-Major Axis(m)": 6931778.249405717,
        "Time(s)": 670
    },
    {
        "Altitude(m)": 553552.9007652212,
        "Argument of Periapsis(deg)": 0.023703336606764106,
        "Eccentricity": 0.0,
        "Inclination(deg)": 53.0,
        "Latitude(deg)": 7.878674671841791,
        "Longitude(deg)": 58.106978891009376,
        "Mean Anomaly(deg)": 9.897221841856615,
        "RAAN(deg)": 154.96472363473185,
        "Satellite Name": "Starlink Shell 1 702",
        "Satellite Number": 702,
        "Semi-Major Axis(m)": 6931778.249405717,
        "Time(s)": 680
    },
    {
        "Altitude(m)": 553532.836312831,
        "Argument of Periapsis(deg)": 0.024051915086275345,
        "Eccentricity": 0.0,
        "Inclination(deg)": 53.0,
        "Latitude(deg)": 8.379745018892685,
        "Longitude(deg)": 58.4500738407172,
        "Mean Anomaly(deg)": 10.524053045413261,
        "RAAN(deg)": 154.9642048646544,
        "Satellite Name": "Starlink Shell 1 702",
        "Satellite Number": 702,
        "Semi-Major Axis(m)": 6931778.249405717,
        "Time(s)": 690
    },
    {
        "Altitude(m)": 553515.5159993903,
        "Argument of Periapsis(deg)": 0.024400493565786583,
        "Eccentricity": 0.0,
        "Inclination(deg)": 53.0,
        "Latitude(deg)": 8.880433867766188,
        "Longitude(deg)": 58.79415759765975,
        "Mean Anomaly(deg)": 11.150884248970032,
        "RAAN(deg)": 154.9636860945769,
        "Satellite Name": "Starlink Shell 1 702",
        "Satellite Number": 702,
        "Semi-Major Axis(m)": 6931778.249405717,
        "Time(s)": 700
    },
    {
        "Altitude(m)": 553500.9249478861,
        "Argument of Periapsis(deg)": 0.024749072045297815,
        "Eccentricity": 0.0,
        "Inclination(deg)": 53.0,
        "Latitude(deg)": 9.380716498535357,
        "Longitude(deg)": 59.139291527730556,
        "Mean Anomaly(deg)": 11.777715452526703,
        "RAAN(deg)": 154.96316732449944,
        "Satellite Name": "Starlink Shell 1 702",
        "Satellite Number": 702,
        "Semi-Major Axis(m)": 6931778.249405717,
        "Time(s)": 710
    },
    {
        "Altitude(m)": 553489.04700916,
        "Argument of Periapsis(deg)": 0.025097650524809053,
        "Eccentricity": 0.0,
        "Inclination(deg)": 53.0,
        "Latitude(deg)": 9.88056797048646,
        "Longitude(deg)": 59.48553745516106,
        "Mean Anomaly(deg)": 12.404546656083449,
        "RAAN(deg)": 154.96264855442197,
        "Satellite Name": "Starlink Shell 1 702",
        "Satellite Number": 702,
        "Semi-Major Axis(m)": 6931778.249405717,
        "Time(s)": 720
    },
    {
        "Altitude(m)": 553479.8647726934,
        "Argument of Periapsis(deg)": 0.02544622900432029,
        "Eccentricity": 0.0,
        "Inclination(deg)": 53.0,
        "Latitude(deg)": 10.379963108515263,
        "Longitude(deg)": 59.832958193173035,
        "Mean Anomaly(deg)": 13.031377859640221,
        "RAAN(deg)": 154.96212978434448,
        "Satellite Name": "Starlink Shell 1 702",
        "Satellite Number": 702,
        "Semi-Major Axis(m)": 6931778.249405717,
        "Time(s)": 730
    },
    {
        "Altitude(m)": 553473.3595780472,
        "Argument of Periapsis(deg)": 0.02579480748383153,
        "Eccentricity": 0.0,
        "Inclination(deg)": 53.0,
        "Latitude(deg)": 10.878876489303606,
        "Longitude(deg)": 60.18161656185198,
        "Mean Anomaly(deg)": 13.658209063196864,
        "RAAN(deg)": 154.96161101426702,
        "Satellite Name": "Starlink Shell 1 702",
        "Satellite Number": 702,
        "Semi-Major Axis(m)": 6931778.249405717,
        "Time(s)": 740
    },
    {
        "Altitude(m)": 553469.5115268723,
        "Argument of Periapsis(deg)": 0.026143385963342765,
        "Eccentricity": 0.0,
        "Inclination(deg)": 53.0,
        "Latitude(deg)": 11.377282427266662,
        "Longitude(deg)": 60.53157591898384,
        "Mean Anomaly(deg)": 14.285040266753613,
        "RAAN(deg)": 154.96109224418956,
        "Satellite Name": "Starlink Shell 1 702",
        "Satellite Number": 702,
        "Semi-Major Axis(m)": 6931778.249405717,
        "Time(s)": 750
    }
]